[{"OBJECT_NAME":"TOMORROW-S5","OBJECT_ID":"2025-052AA","EPOCH":"2026-03-09T22:18:56.653632","MEAN_MOTION":15.21504663,"ECCENTRICITY":0.0008039,"INCLINATION":97.4097,"RA_OF_ASC_NODE":323.1718,"ARG_OF_PERICENTER":130.4519,"MEAN_ANOMALY":229.7419,"EPHEMERIS_TYPE":0,"CLASSIFICATION_TYPE":"U","NORAD_CAT_ID":63234,"ELEMENT_SET_NO":999,"REV_AT_EPOCH":5474,"BSTAR":0.00063877552,"MEAN_MOTION_DOT":0.00014334,"MEAN_MOTION_DDOT":0},{"OBJECT_NAME":"NASBSAT-2","OBJECT_ID":"2025-313AP","EPOCH":"2026-03-09T21:29:44.393280","MEAN_MOTION":15.22323671,"ECCENTRICITY":0.00101247,"INCLINATION":97.3984,"RA_OF_ASC_NODE":145.2202,"ARG_OF_PERICENTER":356.9966,"MEAN_ANOMALY":3.1208,"EPHEMERIS_TYPE":0,"CLASSIFICATION_TYPE":"U","NORAD_CAT_ID":67285,"ELEMENT_SET_NO":999,"REV_AT_EPOCH":1085,"BSTAR":0.00041175277,"MEAN_MOTION_DOT":9.438e-5,"MEAN_MOTION_DDOT":0}]
